[{"OBJECT_NAME":"STARLINK-30164","OBJECT_ID":"2023-113F","EPOCH":"2026-03-09T22:00:01.999584","MEAN_MOTION":15.24466179,"ECCENTRICITY":0.00018202,"INCLINATION":43.0036,"RA_OF_ASC_NODE":14.5924,"ARG_OF_PERICENTER":267.0791,"MEAN_ANOMALY":38.5191,"EPHEMERIS_TYPE":0,"CLASSIFICATION_TYPE":"U","NORAD_CAT_ID":57500,"ELEMENT_SET_NO":999,"REV_AT_EPOCH":578,"BSTAR":0.029239986,"MEAN_MOTION_DOT":0.00792027,"MEAN_MOTION_DDOT":0},{"OBJECT_NAME":"FLOCK 4G-31","OBJECT_ID":"2025-009AV","EPOCH":"2026-03-09T17:55:44.365728","MEAN_MOTION":15.26963037,"ECCENTRICITY":5.975e-5,"INCLINATION":97.4007,"RA_OF_ASC_NODE":151.027,"ARG_OF_PERICENTER":42.5998,"MEAN_ANOMALY":317.5288,"EPHEMERIS_TYPE":0,"CLASSIFICATION_TYPE":"U","NORAD_CAT_ID":62652,"ELEMENT_SET_NO":999,"REV_AT_EPOCH":6372,"BSTAR":0.00048078603,"MEAN_MOTION_DOT":0.00012662,"MEAN_MOTION_DDOT":0}]
